{
  "type": "FeatureCollection",
  "name": "ibague_corregimientos_placeholder",
  "crs": { "type": "name", "properties": { "name": "EPSG:4326" } },
  "features": [
    { "type": "Feature", "properties": { "NOMBRE": "Corregimiento 1 (PLACEHOLDER)", "TIPO": "Corregimiento", "CODIGO": "IBG-CR01", "FUENTE": "PLACEHOLDER — reemplazar por geometría oficial" }, "geometry": { "type": "Polygon", "coordinates": [[[-75.32, 4.34], [-75.29, 4.34], [-75.29, 4.365], [-75.32, 4.365], [-75.32, 4.34]]] } },
    { "type": "Feature", "properties": { "NOMBRE": "Corregimiento 2 (PLACEHOLDER)", "TIPO": "Corregimiento", "CODIGO": "IBG-CR02", "FUENTE": "PLACEHOLDER — reemplazar por geometría oficial" }, "geometry": { "type": "Polygon", "coordinates": [[[-75.285, 4.34], [-75.255, 4.34], [-75.255, 4.365], [-75.285, 4.365], [-75.285, 4.34]]] } },
    { "type": "Feature", "properties": { "NOMBRE": "Corregimiento 3 (PLACEHOLDER)", "TIPO": "Corregimiento", "CODIGO": "IBG-CR03", "FUENTE": "PLACEHOLDER — reemplazar por geometría oficial" }, "geometry": { "type": "Polygon", "coordinates": [[[-75.25, 4.34], [-75.22, 4.34], [-75.22, 4.365], [-75.25, 4.365], [-75.25, 4.34]]] } },
    { "type": "Feature", "properties": { "NOMBRE": "Corregimiento 4 (PLACEHOLDER)", "TIPO": "Corregimiento", "CODIGO": "IBG-CR04", "FUENTE": "PLACEHOLDER — reemplazar por geometría oficial" }, "geometry": { "type": "Polygon", "coordinates": [[[-75.215, 4.34], [-75.185, 4.34], [-75.185, 4.365], [-75.215, 4.365], [-75.215, 4.34]]] } },
    { "type": "Feature", "properties": { "NOMBRE": "Corregimiento 5 (PLACEHOLDER)", "TIPO": "Corregimiento", "CODIGO": "IBG-CR05", "FUENTE": "PLACEHOLDER — reemplazar por geometría oficial" }, "geometry": { "type": "Polygon", "coordinates": [[[-75.18, 4.34], [-75.15, 4.34], [-75.15, 4.365], [-75.18, 4.365], [-75.18, 4.34]]] } },

    { "type": "Feature", "properties": { "NOMBRE": "Corregimiento 6 (PLACEHOLDER)", "TIPO": "Corregimiento", "CODIGO": "IBG-CR06", "FUENTE": "PLACEHOLDER — reemplazar por geometría oficial" }, "geometry": { "type": "Polygon", "coordinates": [[[-75.32, 4.37], [-75.29, 4.37], [-75.29, 4.395], [-75.32, 4.395], [-75.32, 4.37]]] } },
    { "type": "Feature", "properties": { "NOMBRE": "Corregimiento 7 (PLACEHOLDER)", "TIPO": "Corregimiento", "CODIGO": "IBG-CR07", "FUENTE": "PLACEHOLDER — reemplazar por geometría oficial" }, "geometry": { "type": "Polygon", "coordinates": [[[-75.285, 4.37], [-75.255, 4.37], [-75.255, 4.395], [-75.285, 4.395], [-75.285, 4.37]]] } },
    { "type": "Feature", "properties": { "NOMBRE": "Corregimiento 8 (PLACEHOLDER)", "TIPO": "Corregimiento", "CODIGO": "IBG-CR08", "FUENTE": "PLACEHOLDER — reemplazar por geometría oficial" }, "geometry": { "type": "Polygon", "coordinates": [[[-75.25, 4.37], [-75.22, 4.37], [-75.22, 4.395], [-75.25, 4.395], [-75.25, 4.37]]] } },
    { "type": "Feature", "properties": { "NOMBRE": "Corregimiento 9 (PLACEHOLDER)", "TIPO": "Corregimiento", "CODIGO": "IBG-CR09", "FUENTE": "PLACEHOLDER — reemplazar por geometría oficial" }, "geometry": { "type": "Polygon", "coordinates": [[[-75.215, 4.37], [-75.185, 4.37], [-75.185, 4.395], [-75.215, 4.395], [-75.215, 4.37]]] } },
    { "type": "Feature", "properties": { "NOMBRE": "Corregimiento 10 (PLACEHOLDER)", "TIPO": "Corregimiento", "CODIGO": "IBG-CR10", "FUENTE": "PLACEHOLDER — reemplazar por geometría oficial" }, "geometry": { "type": "Polygon", "coordinates": [[[-75.18, 4.37], [-75.15, 4.37], [-75.15, 4.395], [-75.18, 4.395], [-75.18, 4.37]]] } },

    { "type": "Feature", "properties": { "NOMBRE": "Corregimiento 11 (PLACEHOLDER)", "TIPO": "Corregimiento", "CODIGO": "IBG-CR11", "FUENTE": "PLACEHOLDER — reemplazar por geometría oficial" }, "geometry": { "type": "Polygon", "coordinates": [[[-75.32, 4.40], [-75.29, 4.40], [-75.29, 4.425], [-75.32, 4.425], [-75.32, 4.40]]] } },
    { "type": "Feature", "properties": { "NOMBRE": "Corregimiento 12 (PLACEHOLDER)", "TIPO": "Corregimiento", "CODIGO": "IBG-CR12", "FUENTE": "PLACEHOLDER — reemplazar por geometría oficial" }, "geometry": { "type": "Polygon", "coordinates": [[[-75.285, 4.40], [-75.255, 4.40], [-75.255, 4.425], [-75.285, 4.425], [-75.285, 4.40]]] } },
    { "type": "Feature", "properties": { "NOMBRE": "Corregimiento 13 (PLACEHOLDER)", "TIPO": "Corregimiento", "CODIGO": "IBG-CR13", "FUENTE": "PLACEHOLDER — reemplazar por geometría oficial" }, "geometry": { "type": "Polygon", "coordinates": [[[-75.25, 4.40], [-75.22, 4.40], [-75.22, 4.425], [-75.25, 4.425], [-75.25, 4.40]]] } },
    { "type": "Feature", "properties": { "NOMBRE": "Corregimiento 14 (PLACEHOLDER)", "TIPO": "Corregimiento", "CODIGO": "IBG-CR14", "FUENTE": "PLACEHOLDER — reemplazar por geometría oficial" }, "geometry": { "type": "Polygon", "coordinates": [[[-75.215, 4.40], [-75.185, 4.40], [-75.185, 4.425], [-75.215, 4.425], [-75.215, 4.40]]] } },

    { "type": "Feature", "properties": { "NOMBRE": "Corregimiento 15 (PLACEHOLDER)", "TIPO": "Corregimiento", "CODIGO": "IBG-CR15", "FUENTE": "PLACEHOLDER — reemplazar por geometría oficial" }, "geometry": { "type": "Polygon", "coordinates": [[[-75.32, 4.43], [-75.29, 4.43], [-75.29, 4.455], [-75.32, 4.455], [-75.32, 4.43]]] } },
    { "type": "Feature", "properties": { "NOMBRE": "Corregimiento 16 (PLACEHOLDER)", "TIPO": "Corregimiento", "CODIGO": "IBG-CR16", "FUENTE": "PLACEHOLDER — reemplazar por geometría oficial" }, "geometry": { "type": "Polygon", "coordinates": [[[-75.285, 4.43], [-75.255, 4.43], [-75.255, 4.455], [-75.285, 4.455], [-75.285, 4.43]]] } },
    { "type": "Feature", "properties": { "NOMBRE": "Corregimiento 17 (PLACEHOLDER)", "TIPO": "Corregimiento", "CODIGO": "IBG-CR17", "FUENTE": "PLACEHOLDER — reemplazar por geometría oficial" }, "geometry": { "type": "Polygon", "coordinates": [[[-75.25, 4.43], [-75.22, 4.43], [-75.22, 4.455], [-75.25, 4.455], [-75.25, 4.43]]] } }
  ]
}

